{{Infobox Planet  
| name = 419 Aurelia
| image = 
| caption = 
| discovery=yes | physical_characteristics = yes | bgcolour=#FFFFC0
| discovery_ref = 
| discoverer = [[马克斯·沃夫|马克斯·沃夫]]
| discovery_site = [[海德堡|海德堡]]
| discovered =  1896年9月7日
| mp_name = 419
| alt_names = 1896 CW
| named_after = 
| mp_category=[[小行星带|主带小行星]]
| orbit_ref = <ref>[http://ssd.jpl.nasa.gov/sbdb.cgi?sstr=419 419 Aurelia (1896 CW)]</ref>
| epoch = 2011年8月27日
| semimajor= 2.594964928588268AU
| perihelion=1.938873315932196AU
| aphelion=3.251056541244339[[天文单位|AU]]
| eccentricity =0.252832554855762		
| period =1526.847512414679[[日|地球日]]<br>4.18[[年|地球年]] 
| inclination=3.925413214551035[[角度|°]]
| asc_node=229.2866014274921°	
| arg_peri=44.48134668328329°
| mean_anomaly=233.3784629706144°
| avg_speed=
 | dimensions=129.01千米
 | mass=
 | density=
 | surface_grav=
 | escape_velocity=
 | rotation=16.784小时
 | spectral_type=[[F-型小行星|F]]
 | magnitude=
 | abs_magnitude=8.42
 | albedo=0.0455	
 | single_temperature=
}}

'''小行星419'''（'''419 Aurelia'''），是由[[德国|德国]][[天文学家|天文学家]][[马克斯·沃夫|马克斯·沃夫]]于1896年9月7日在德国[[海德堡|海德堡]][[王座山天文台|王座山天文台]]发现的[[小行星带|主带]][[小行星|小行星]]。

小行星419的命名依据不明。

== 参考资料 ==
{{Reflist}}

{{Minor Planet Number|(418)[[小行星418|小行星418]]|(420)[[小行星420|小行星420]]}}

[[Category:小行星带天体|Category:小行星带天体]]
[[Category:1896年发现的小行星|Category:1896年发现的小行星]]
[[Category:F-型小行星|Category:F-型小行星]]